[
    {
        "Altitude(m)": 587053.090525562,
        "Argument of Periapsis(deg)": 0.0,
        "Eccentricity": 0.0,
        "Inclination(deg)": 97.0,
        "Latitude(deg)": -61.48168241817449,
        "Longitude(deg)": -86.98191757822615,
        "Mean Anomaly(deg)": 297.931,
        "RAAN(deg)": 0.0,
        "Satellite Name": "Starlink Shell 3 1632",
        "Satellite Number": 1632,
        "Semi-Major Axis(m)": 6938478.169268562,
        "Time(s)": 0
    },
    {
        "Altitude(m)": 586852.5980778924,
        "Argument of Periapsis(deg)": -0.0003965466804030246,
        "Eccentricity": 0.0,
        "Inclination(deg)": 97.0,
        "Latitude(deg)": -60.8799388382922,
        "Longitude(deg)": -87.34794891910852,
        "Mean Anomaly(deg)": 298.556476197705,
        "RAAN(deg)": 0.00010433427400896087,
        "Satellite Name": "Starlink Shell 3 1632",
        "Satellite Number": 1632,
        "Semi-Major Axis(m)": 6938478.169268562,
        "Time(s)": 10
    },
    {
        "Altitude(m)": 586649.0014249434,
        "Argument of Periapsis(deg)": -0.0007930933608060492,
        "Eccentricity": 0.0,
        "Inclination(deg)": 97.0,
        "Latitude(deg)": -60.27736801808605,
        "Longitude(deg)": -87.70200676522582,
        "Mean Anomaly(deg)": 299.18195239541006,
        "RAAN(deg)": 0.00020866854801792175,
        "Satellite Name": "Starlink Shell 3 1632",
        "Satellite Number": 1632,
        "Semi-Major Axis(m)": 6938478.169268562,
        "Time(s)": 20
    },
    {
        "Altitude(m)": 586442.3823769194,
        "Argument of Periapsis(deg)": -0.001189640041209074,
        "Eccentricity": 0.0,
        "Inclination(deg)": 97.0,
        "Latitude(deg)": -59.674013692727414,
        "Longitude(deg)": -88.04479485764061,
        "Mean Anomaly(deg)": 299.8074285931151,
        "RAAN(deg)": 0.0003130028220268826,
        "Satellite Name": "Starlink Shell 3 1632",
        "Satellite Number": 1632,
        "Semi-Major Axis(m)": 6938478.169268562,
        "Time(s)": 30
    },
    {
        "Altitude(m)": 586232.8239210233,
        "Argument of Periapsis(deg)": -0.0015861867216120985,
        "Eccentricity": 0.0,
        "Inclination(deg)": 97.0,
        "Latitude(deg)": -59.06991619524152,
        "Longitude(deg)": -88.3769638988582,
        "Mean Anomaly(deg)": 300.43290479082015,
        "RAAN(deg)": 0.0004173370960358435,
        "Satellite Name": "Starlink Shell 3 1632",
        "Satellite Number": 1632,
        "Semi-Major Axis(m)": 6938478.169268562,
        "Time(s)": 40
    },
    {
        "Altitude(m)": 586020.410185388,
        "Argument of Periapsis(deg)": -0.0019827334020151234,
        "Eccentricity": 0.0,
        "Inclination(deg)": 97.0,
        "Latitude(deg)": -58.465112776096944,
        "Longitude(deg)": -88.69911729209225,
        "Mean Anomaly(deg)": 301.0583809885252,
        "RAAN(deg)": 0.0005216713700448044,
        "Satellite Name": "Starlink Shell 3 1632",
        "Satellite Number": 1632,
        "Semi-Major Axis(m)": 6938478.169268562,
        "Time(s)": 50
    },
    {
        "Altitude(m)": 585805.226402466,
        "Argument of Periapsis(deg)": -0.002379280082418148,
        "Eccentricity": 0.0,
        "Inclination(deg)": 97.0,
        "Latitude(deg)": -57.859637888367246,
        "Longitude(deg)": -89.01181487651026,
        "Mean Anomaly(deg)": 301.6838571862302,
        "RAAN(deg)": 0.0006260056440537652,
        "Satellite Name": "Starlink Shell 3 1632",
        "Satellite Number": 1632,
        "Semi-Major Axis(m)": 6938478.169268562,
        "Time(s)": 60
    },
    {
        "Altitude(m)": 585587.3588718714,
        "Argument of Periapsis(deg)": -0.002775826762821173,
        "Eccentricity": 0.0,
        "Inclination(deg)": 97.0,
        "Latitude(deg)": -57.253523442658235,
        "Longitude(deg)": -89.31557622843108,
        "Mean Anomaly(deg)": 302.30933338393527,
        "RAAN(deg)": 0.0007303399180627261,
        "Satellite Name": "Starlink Shell 3 1632",
        "Satellite Number": 1632,
        "Semi-Major Axis(m)": 6938478.169268562,
        "Time(s)": 70
    },
    {
        "Altitude(m)": 585366.8949227134,
        "Argument of Periapsis(deg)": -0.003172373443224197,
        "Eccentricity": 0.0,
        "Inclination(deg)": 97.0,
        "Latitude(deg)": -56.64679903542869,
        "Longitude(deg)": -89.61088509118922,
        "Mean Anomaly(deg)": 302.9348095816403,
        "RAAN(deg)": 0.000834674192071687,
        "Satellite Name": "Starlink Shell 3 1632",
        "Satellite Number": 1632,
        "Semi-Major Axis(m)": 6938478.169268562,
        "Time(s)": 80
    },
    {
        "Altitude(m)": 585143.9228754685,
        "Argument of Periapsis(deg)": -0.0035689201236272223,
        "Eccentricity": 0.0,
        "Inclination(deg)": 97.0,
        "Latitude(deg)": -56.039492153848826,
        "Longitude(deg)": -89.89819195148009,
        "Mean Anomaly(deg)": 303.5602857793454,
        "RAAN(deg)": 0.0009390084660806479,
        "Satellite Name": "Starlink Shell 3 1632",
        "Satellite Number": 1632,
        "Semi-Major Axis(m)": 6938478.169268562,
        "Time(s)": 90
    },
    {
        "Altitude(m)": 584918.5320033344,
        "Argument of Periapsis(deg)": -0.003965466804030247,
        "Eccentricity": 0.0,
        "Inclination(deg)": 97.0,
        "Latitude(deg)": -55.43162835993207,
        "Longitude(deg)": -90.17791631320685,
        "Mean Anomaly(deg)": 304.18576197705045,
        "RAAN(deg)": 0.0010433427400896088,
        "Satellite Name": "Starlink Shell 3 1632",
        "Satellite Number": 1632,
        "Semi-Major Axis(m)": 6938478.169268562,
        "Time(s)": 100
    },
    {
        "Altitude(m)": 584690.8124931313,
        "Argument of Periapsis(deg)": -0.004362013484433271,
        "Eccentricity": 0.0,
        "Inclination(deg)": 97.0,
        "Latitude(deg)": -54.823231456316236,
        "Longitude(deg)": -90.45045021515985,
        "Mean Anomaly(deg)": 304.81123817475543,
        "RAAN(deg)": 0.0011476770140985695,
        "Satellite Name": "Starlink Shell 3 1632",
        "Satellite Number": 1632,
        "Semi-Major Axis(m)": 6938478.169268562,
        "Time(s)": 110
    },
    {
        "Altitude(m)": 584460.855405752,
        "Argument of Periapsis(deg)": -0.004758560164836296,
        "Eccentricity": 0.0,
        "Inclination(deg)": 97.0,
        "Latitude(deg)": -54.21432363577204,
        "Longitude(deg)": -90.716159996148,
        "Mean Anomaly(deg)": 305.43671437246047,
        "RAAN(deg)": 0.0012520112881075304,
        "Satellite Name": "Starlink Shell 3 1632",
        "Satellite Number": 1632,
        "Semi-Major Axis(m)": 6938478.169268562,
        "Time(s)": 120
    },
    {
        "Altitude(m)": 584228.7526362032,
        "Argument of Periapsis(deg)": -0.005155106845239321,
        "Eccentricity": 0.0,
        "Inclination(deg)": 97.0,
        "Latitude(deg)": -53.6049256162545,
        "Longitude(deg)": -90.97538784630281,
        "Mean Anomaly(deg)": 306.0621905701655,
        "RAAN(deg)": 0.0013563455621164913,
        "Satellite Name": "Starlink Shell 3 1632",
        "Satellite Number": 1632,
        "Semi-Major Axis(m)": 6938478.169268562,
        "Time(s)": 130
    },
    {
        "Altitude(m)": 583994.5968731819,
        "Argument of Periapsis(deg)": -0.005551653525642346,
        "Eccentricity": 0.0,
        "Inclination(deg)": 97.0,
        "Latitude(deg)": -52.995056763083106,
        "Longitude(deg)": -91.22845468019739,
        "Mean Anomaly(deg)": 306.68766676787055,
        "RAAN(deg)": 0.0014606798361254522,
        "Satellite Name": "Starlink Shell 3 1632",
        "Satellite Number": 1632,
        "Semi-Major Axis(m)": 6938478.169268562,
        "Time(s)": 140
    },
    {
        "Altitude(m)": 583758.4815583016,
        "Argument of Periapsis(deg)": -0.005948200206045371,
        "Eccentricity": 0.0,
        "Inclination(deg)": 97.0,
        "Latitude(deg)": -52.38473519964978,
        "Longitude(deg)": -91.47566132611246,
        "Mean Anomaly(deg)": 307.3131429655756,
        "RAAN(deg)": 0.0015650141101344129,
        "Satellite Name": "Starlink Shell 3 1632",
        "Satellite Number": 1632,
        "Semi-Major Axis(m)": 6938478.169268562,
        "Time(s)": 150
    },
    {
        "Altitude(m)": 583520.5008448901,
        "Argument of Periapsis(deg)": -0.006344746886448394,
        "Eccentricity": 0.0,
        "Inclination(deg)": 97.0,
        "Latitude(deg)": -51.77397790787727,
        "Longitude(deg)": -91.71728956207807,
        "Mean Anomaly(deg)": 307.9386191632807,
        "RAAN(deg)": 0.001669348384143374,
        "Satellite Name": "Starlink Shell 3 1632",
        "Satellite Number": 1632,
        "Semi-Major Axis(m)": 6938478.169268562,
        "Time(s)": 160
    },
    {
        "Altitude(m)": 583280.7495564767,
        "Argument of Periapsis(deg)": -0.00674129356685142,
        "Eccentricity": 0.0,
        "Inclination(deg)": 97.0,
        "Latitude(deg)": -51.16280081951011,
        "Longitude(deg)": -91.95360452727726,
        "Mean Anomaly(deg)": 308.56409536098573,
        "RAAN(deg)": 0.001773682658152335,
        "Satellite Name": "Starlink Shell 3 1632",
        "Satellite Number": 1632,
        "Semi-Major Axis(m)": 6938478.169268562,
        "Time(s)": 170
    },
    {
        "Altitude(m)": 583039.3231448672,
        "Argument of Periapsis(deg)": -0.007137840247254445,
        "Eccentricity": 0.0,
        "Inclination(deg)": 97.0,
        "Latitude(deg)": -50.5512188991893,
        "Longitude(deg)": -92.18485549698262,
        "Mean Anomaly(deg)": 309.1895715586908,
        "RAAN(deg)": 0.0018780169321612958,
        "Satellite Name": "Starlink Shell 3 1632",
        "Satellite Number": 1632,
        "Semi-Major Axis(m)": 6938478.169268562,
        "Time(s)": 180
    }
]